start=new Date('2022-07-09T00:00:00.000Z').valueOf();
sats=[{"CENTER_NAME":"EARTH","PERIAPSIS":"538.627","DECAY_DATE":null,"REF_FRAME":"TEME","TLE_LINE2":"2 51740  53.2147 213.5850 0001685  62.7580 254.3060 15.08824529  1301","OBJECT_TYPE":"PAYLOAD","INCLINATION":"53.2147","MEAN_MOTION_DDOT":"0.0000000000000","ECCENTRICITY":"0.00016850","MEAN_ANOMALY":"254.3060","ELEMENT_SET_NO":"999","FILE":"3510087","EPHEMERIS_TYPE":"0","PERIOD":"95.439","EPOCH":"2022-07-08T22:00:01.999584","RA_OF_ASC_NODE":"213.5850","CLASSIFICATION_TYPE":"U","GP_ID":"207696248","MEAN_MOTION_DOT":"0.00046497","OBJECT_NAME":"STARLINK-3500","APOAPSIS":"540.958","MEAN_MOTION":"15.08824529","SITE":"AFETR","TLE_LINE1":"1 51740U 22016AC  22189.91668981  .00046497  00000-0  29216-2 0  9990","OBJECT_ID":"2022-016AC","BSTAR":"0.00292160000000","MEAN_ELEMENT_THEORY":"SGP4","REV_AT_EPOCH":"130","NORAD_CAT_ID":"51740","RCS_SIZE":"LARGE","SEMIMAJOR_AXIS":"6917.928","TIME_SYSTEM":"UTC","COUNTRY_CODE":"US","LAUNCH_DATE":"2022-02-21","ARG_OF_PERICENTER":"62.7580"},{"MEAN_ANOMALY":"204.1362","ELEMENT_SET_NO":"999","FILE":"3510087","EPHEMERIS_TYPE":"0","PERIOD":"95.439","EPOCH":"2022-07-08T22:00:01.999584","CLASSIFICATION_TYPE":"U","RA_OF_ASC_NODE":"213.5850","MEAN_MOTION_DOT":"0.00044002","GP_ID":"207696498","CENTER_NAME":"EARTH","PERIAPSIS":"538.413","DECAY_DATE":null,"REF_FRAME":"TEME","TLE_LINE2":"2 51741  53.2137 213.5850 0002020  52.9996 204.1362 15.08818563  1306","OBJECT_TYPE":"PAYLOAD","INCLINATION":"53.2137","MEAN_MOTION_DDOT":"0.0000000000000","ECCENTRICITY":"0.00020200","REV_AT_EPOCH":"130","NORAD_CAT_ID":"51741","RCS_SIZE":"LARGE","SEMIMAJOR_AXIS":"6917.946","TIME_SYSTEM":"UTC","COUNTRY_CODE":"US","LAUNCH_DATE":"2022-02-21","ARG_OF_PERICENTER":"52.9996","OBJECT_NAME":"STARLINK-3520","APOAPSIS":"541.208","MEAN_MOTION":"15.08818563","SITE":"AFETR","OBJECT_ID":"2022-016AD","TLE_LINE1":"1 51741U 22016AD  22189.91668981  .00044002  00000-0  27672-2 0  9995","BSTAR":"0.00276720000000","MEAN_ELEMENT_THEORY":"SGP4"},{"MEAN_MOTION_DDOT":"0.0000000000000","ECCENTRICITY":"0.00017690","INCLINATION":"53.2137","OBJECT_TYPE":"PAYLOAD","TLE_LINE2":"2 51742  53.2137 213.5852 0001769  60.7395 276.5081 15.08810420  1303","REF_FRAME":"TEME","DECAY_DATE":null,"CENTER_NAME":"EARTH","PERIAPSIS":"538.612","RA_OF_ASC_NODE":"213.5852","CLASSIFICATION_TYPE":"U","GP_ID":"207696749","MEAN_MOTION_DOT":"0.00047293","EPOCH":"2022-07-08T22:00:01.999584","PERIOD":"95.439","EPHEMERIS_TYPE":"0","FILE":"3510087","MEAN_ANOMALY":"276.5081","ELEMENT_SET_NO":"999","MEAN_ELEMENT_THEORY":"SGP4","BSTAR":"0.00297210000000","OBJECT_ID":"2022-016AE","TLE_LINE1":"1 51742U 22016AE  22189.91668981  .00047293  00000-0  29721-2 0  9998","SITE":"AFETR","MEAN_MOTION":"15.08810420","APOAPSIS":"541.060","OBJECT_NAME":"STARLINK-3521","LAUNCH_DATE":"2022-02-21","ARG_OF_PERICENTER":"60.7395","COUNTRY_CODE":"US","TIME_SYSTEM":"UTC","SEMIMAJOR_AXIS":"6917.971","NORAD_CAT_ID":"51742","RCS_SIZE":"LARGE","REV_AT_EPOCH":"130"},{"PERIAPSIS":"538.490","CENTER_NAME":"EARTH","DECAY_DATE":null,"REF_FRAME":"TEME","TLE_LINE2":"2 51743  53.2137 203.5958 0001899  45.0563 147.1047 15.08821025  1305","OBJECT_TYPE":"PAYLOAD","INCLINATION":"53.2137","ECCENTRICITY":"0.00018990","MEAN_MOTION_DDOT":"0.0000000000000","MEAN_ANOMALY":"147.1047","ELEMENT_SET_NO":"999","FILE":"3510087","EPHEMERIS_TYPE":"0","PERIOD":"95.439","EPOCH":"2022-07-08T22:00:01.999584","MEAN_MOTION_DOT":"0.00039149","GP_ID":"207697500","RA_OF_ASC_NODE":"203.5958","CLASSIFICATION_TYPE":"U","OBJECT_NAME":"STARLINK-3512","APOAPSIS":"541.117","MEAN_MOTION":"15.08821025","SITE":"AFETR","OBJECT_ID":"2022-016AF","TLE_LINE1":"1 51743U 22016AF  22189.91668981  .00039149  00000-0  24655-2 0  9991","BSTAR":"0.00246550000000","MEAN_ELEMENT_THEORY":"SGP4","REV_AT_EPOCH":"130","RCS_SIZE":"LARGE","NORAD_CAT_ID":"51743","TIME_SYSTEM":"UTC","SEMIMAJOR_AXIS":"6917.938","COUNTRY_CODE":"US","ARG_OF_PERICENTER":"45.0563","LAUNCH_DATE":"2022-02-21"},{"PERIAPSIS":"538.669","CENTER_NAME":"EARTH","DECAY_DATE":null,"REF_FRAME":"TEME","TLE_LINE2":"2 51744  53.2158 213.5802 0001681  45.7113 326.2749 15.08811702  1305","OBJECT_TYPE":"PAYLOAD","INCLINATION":"53.2158","ECCENTRICITY":"0.00016810","MEAN_MOTION_DDOT":"0.0000000000000","ELEMENT_SET_NO":"999","MEAN_ANOMALY":"326.2749","FILE":"3510087","EPHEMERIS_TYPE":"0","PERIOD":"95.439","EPOCH":"2022-07-08T22:00:01.999584","MEAN_MOTION_DOT":"0.00046132","GP_ID":"207695748","RA_OF_ASC_NODE":"213.5802","CLASSIFICATION_TYPE":"U","OBJECT_NAME":"STARLINK-3452","APOAPSIS":"540.995","MEAN_MOTION":"15.08811702","SITE":"AFETR","TLE_LINE1":"1 51744U 22016AG  22189.91668981  .00046132  00000-0  29000-2 0  9991","OBJECT_ID":"2022-016AG","BSTAR":"0.00290000000000","MEAN_ELEMENT_THEORY":"SGP4","REV_AT_EPOCH":"130","NORAD_CAT_ID":"51744","RCS_SIZE":"MEDIUM","SEMIMAJOR_AXIS":"6917.967","TIME_SYSTEM":"UTC","COUNTRY_CODE":"US","ARG_OF_PERICENTER":"45.7113","LAUNCH_DATE":"2022-02-21"},{"TLE_LINE2":"2 51745  53.2138 213.5860 0001717  50.1487 246.9803 15.08829889  1306","OBJECT_TYPE":"PAYLOAD","INCLINATION":"53.2138","ECCENTRICITY":"0.00017170","MEAN_MOTION_DDOT":"0.0000000000000","PERIAPSIS":"538.588","CENTER_NAME":"EARTH","DECAY_DATE":null,"REF_FRAME":"TEME","EPHEMERIS_TYPE":"0","PERIOD":"95.438","EPOCH":"2022-07-08T22:00:01.999584","MEAN_MOTION_DOT":"0.00046023","GP_ID":"207695998","CLASSIFICATION_TYPE":"U","RA_OF_ASC_NODE":"213.5860","ELEMENT_SET_NO":"999","MEAN_ANOMALY":"246.9803","FILE":"3510087","SITE":"AFETR","OBJECT_ID":"2022-016AH","TLE_LINE1":"1 51745U 22016AH  22189.91668981  .00046023  00000-0  28918-2 0  9998","BSTAR":"0.00289180000000","MEAN_ELEMENT_THEORY":"SGP4","OBJECT_NAME":"STARLINK-3449","APOAPSIS":"540.964","MEAN_MOTION":"15.08829889","COUNTRY_CODE":"US","ARG_OF_PERICENTER":"50.1487","LAUNCH_DATE":"2022-02-21","REV_AT_EPOCH":"130","RCS_SIZE":"LARGE","NORAD_CAT_ID":"51745","TIME_SYSTEM":"UTC","SEMIMAJOR_AXIS":"6917.911"},{"ARG_OF_PERICENTER":"55.8442","LAUNCH_DATE":"2022-02-21","COUNTRY_CODE":"US","RCS_SIZE":"LARGE","NORAD_CAT_ID":"51746","REV_AT_EPOCH":"130","TIME_SYSTEM":"UTC","SEMIMAJOR_AXIS":"6917.871","OBJECT_ID":"2022-016AJ","TLE_LINE1":"1 51746U 22016AJ  22189.91668981  .00020536  00000-0  13045-2 0  9995","SITE":"AFETR","MEAN_ELEMENT_THEORY":"SGP4","BSTAR":"0.00130450000000","OBJECT_NAME":"STARLINK-3502","MEAN_MOTION":"15.08843213","APOAPSIS":"541.022","PERIOD":"95.437","EPHEMERIS_TYPE":"0","GP_ID":"207697250","MEAN_MOTION_DOT":"0.00020536","RA_OF_ASC_NODE":"203.5968","CLASSIFICATION_TYPE":"U","EPOCH":"2022-07-08T22:00:01.999584","MEAN_ANOMALY":"156.3770","ELEMENT_SET_NO":"999","FILE":"3510087","OBJECT_TYPE":"PAYLOAD","TLE_LINE2":"2 51746  53.2145 203.5968 0001860  55.8442 156.3770 15.08843213  1309","ECCENTRICITY":"0.00018600","MEAN_MOTION_DDOT":"0.0000000000000","INCLINATION":"53.2145","DECAY_DATE":null,"PERIAPSIS":"538.449","CENTER_NAME":"EARTH","REF_FRAME":"TEME"},{"LAUNCH_DATE":"2022-02-21","ARG_OF_PERICENTER":"56.4903","COUNTRY_CODE":"US","RCS_SIZE":"LARGE","NORAD_CAT_ID":"51747","REV_AT_EPOCH":"130","SEMIMAJOR_AXIS":"6917.904","TIME_SYSTEM":"UTC","OBJECT_ID":"2022-016AK","TLE_LINE1":"1 51747U 22016AK  22189.91668981  .00043849  00000-0  27567-2 0  9992","SITE":"AFETR","MEAN_ELEMENT_THEORY":"SGP4","BSTAR":"0.00275670000000","OBJECT_NAME":"STARLINK-3446","MEAN_MOTION":"15.08832132","APOAPSIS":"540.981","PERIOD":"95.438","EPHEMERIS_TYPE":"0","RA_OF_ASC_NODE":"213.5791","CLASSIFICATION_TYPE":"U","GP_ID":"207697000","MEAN_MOTION_DOT":"0.00043849","EPOCH":"2022-07-08T22:00:01.999584","ELEMENT_SET_NO":"999","MEAN_ANOMALY":"300.6967","FILE":"3510087","OBJECT_TYPE":"PAYLOAD","TLE_LINE2":"2 51747  53.2166 213.5791 0001751  56.4903 300.6967 15.08832132  1306","MEAN_MOTION_DDOT":"0.0000000000000","ECCENTRICITY":"0.00017510","INCLINATION":"53.2166","DECAY_DATE":null,"CENTER_NAME":"EARTH","PERIAPSIS":"538.558","REF_FRAME":"TEME"},{"ARG_OF_PERICENTER":"47.7130","LAUNCH_DATE":"2022-02-21","COUNTRY_CODE":"US","SEMIMAJOR_AXIS":"6917.971","TIME_SYSTEM":"UTC","RCS_SIZE":"LARGE","NORAD_CAT_ID":"51748","REV_AT_EPOCH":"130","MEAN_ELEMENT_THEORY":"SGP4","BSTAR":"0.00275850000000","TLE_LINE1":"1 51748U 22016AL  22189.91668981  .00043852  00000-0  27585-2 0  9997","OBJECT_ID":"2022-016AL","SITE":"AFETR","MEAN_MOTION":"15.08810491","APOAPSIS":"541.130","OBJECT_NAME":"STARLINK-3501","MEAN_MOTION_DOT":"0.00043852","GP_ID":"207696249","CLASSIFICATION_TYPE":"U","RA_OF_ASC_NODE":"203.5991","EPOCH":"2022-07-08T22:00:01.999584","PERIOD":"95.439","EPHEMERIS_TYPE":"0","FILE":"3510087","MEAN_ANOMALY":"204.5176","ELEMENT_SET_NO":"999","ECCENTRICITY":"0.00018710","MEAN_MOTION_DDOT":"0.0000000000000","INCLINATION":"53.2164","OBJECT_TYPE":"PAYLOAD","TLE_LINE2":"2 51748  53.2164 203.5991 0001871  47.7130 204.5176 15.08810491  1302","REF_FRAME":"TEME","DECAY_DATE":null,"PERIAPSIS":"538.541","CENTER_NAME":"EARTH"},{"CLASSIFICATION_TYPE":"U","RA_OF_ASC_NODE":"213.5857","GP_ID":"207696499","MEAN_MOTION_DOT":"0.00041322","EPOCH":"2022-07-08T22:00:01.999584","PERIOD":"95.438","EPHEMERIS_TYPE":"0","FILE":"3510087","ELEMENT_SET_NO":"999","MEAN_ANOMALY":"139.0818","MEAN_MOTION_DDOT":"0.0000000000000","ECCENTRICITY":"0.00020970","INCLINATION":"53.2152","OBJECT_TYPE":"PAYLOAD","TLE_LINE2":"2 51749  53.2152 213.5857 0002097  52.8595 139.0818 15.08835993  1304","REF_FRAME":"TEME","DECAY_DATE":null,"CENTER_NAME":"EARTH","PERIAPSIS":"538.307","LAUNCH_DATE":"2022-02-21","ARG_OF_PERICENTER":"52.8595","COUNTRY_CODE":"US","SEMIMAJOR_AXIS":"6917.893","TIME_SYSTEM":"UTC","NORAD_CAT_ID":"51749","RCS_SIZE":"LARGE","REV_AT_EPOCH":"130","MEAN_ELEMENT_THEORY":"SGP4","BSTAR":"0.00259950000000","TLE_LINE1":"1 51749U 22016AM  22189.91668981  .00041322  00000-0  25995-2 0  9991","OBJECT_ID":"2022-016AM","SITE":"AFETR","MEAN_MOTION":"15.08835993","APOAPSIS":"541.208","OBJECT_NAME":"STARLINK-3451"}];
